OBJECT_NAME,OBJECT_ID,EPOCH,MEAN_MOTION,ECCENTRICITY,INCLINATION,RA_OF_ASC_NODE,ARG_OF_PERICENTER,MEAN_ANOMALY,EPHEMERIS_TYPE,CLASSIFICATION_TYPE,NORAD_CAT_ID,ELEMENT_SET_NO,REV_AT_EPOCH,BSTAR,MEAN_MOTION_DOT,MEAN_MOTION_DDOT
SITRO-AIS-59,2025-313K,2026-03-10T03:37:27.497280,15.21267320,.00156115,97.4001,145.3607,357.4159,2.6994,0,U,67257,999,1088,.54205119E-3,.12093E-3,0
SITRO-AIS-58,2025-313L,2026-03-10T03:34:05.691936,15.21336153,.00155194,97.3997,145.3591,356.7497,3.3636,0,U,67258,999,1088,.55333024E-3,.12371E-3,0
2025-313M,2025-313M,2026-03-10T06:13:37.743168,15.22055282,.00144551,97.4039,145.5671,354.4747,5.6327,0,U,67259,999,1090,.71953252E-3,.16454E-3,0
SITRO-AIS-60,2025-313N,2026-03-10T03:36:20.342016,15.21091834,.00151368,97.4006,145.3652,358.0856,2.0319,0,U,67260,999,1088,.44213788E-3,.9796E-4,0
2025-313P,2025-313P,2026-03-10T05:45:16.406208,15.22884027,.00138669,97.4037,145.5936,353.1785,6.9261,0,U,67261,999,1090,.10175708E-2,.23893E-3,0
2025-313Q,2025-313Q,2026-03-10T06:20:05.104608,15.21817165,.00145403,97.4008,145.5197,357.2635,2.8520,0,U,67262,999,1090,.67190042E-3,.15251E-3,0
DCS-1,2025-313R,2026-03-10T06:28:15.739104,15.21572493,.00145517,97.4020,145.5359,356.7264,3.3875,0,U,67263,999,1090,.55195133E-3,.12422E-3,0
KOWSAR 1.5,2025-313S,2026-03-10T06:46:39.721152,15.21045423,.00150313,97.4090,145.5677,2.3915,357.7390,0,U,67264,999,1090,.44507314E-3,.9848E-4,0
SITRO-TD-4,2025-313T,2026-03-10T06:27:52.098336,15.21545187,.00145612,97.4000,145.5165,357.6549,2.4616,0,U,67265,999,1090,.50730753E-3,.11401E-3,0
SITRO-AIS-65,2025-313U,2026-03-10T06:26:41.699616,15.21583383,.00144397,97.4028,145.5432,356.1627,3.9495,0,U,67266,999,1090,.56554238E-3,.12733E-3,0
2025-313V,2025-313V,2026-03-10T06:17:39.657984,15.21836216,.00137694,97.4010,145.5257,2.2065,357.9229,0,U,67267,999,1090,.64323286E-3,.146E-3,0
ZORKY-2M 7,2025-313W,2026-03-10T06:36:41.929920,15.21232335,.00148294,97.4013,145.5076,356.7150,3.3985,0,U,67268,999,1090,.42279946E-3,.9401E-4,0
2025-313X,2025-313X,2026-03-10T06:04:27.742368,15.22250373,.00140244,97.4034,145.5702,354.3753,5.7324,0,U,67269,999,1090,.74909442E-3,.17231E-3,0
SITRO-TD-3,2025-313Y,2026-03-10T06:28:03.295776,15.21569726,.00145637,97.4010,145.5253,357.1010,3.0139,0,U,67270,999,1090,.5616162E-3,.1264E-3,0
2025-313Z,2025-313Z,2026-03-10T06:55:59.670048,15.20708638,.00148275,97.4006,145.4873,354.3206,5.7859,0,U,67271,999,1090,.28819223E-3,.6286E-4,0
2025-313AA,2025-313AA,2026-03-10T06:10:38.832096,15.21964086,.00141979,97.4008,145.5290,357.2917,2.8240,0,U,67272,999,1090,.62160962E-3,.14162E-3,0
2025-313AB,2025-313AB,2026-03-10T05:27:05.484384,15.20498661,.00143844,97.4025,145.4333,4.3326,355.8031,0,U,67273,999,1089,.21822145E-3,.4712E-4,0
2025-313AC,2025-313AC,2026-03-10T06:37:54.532704,15.21181915,.0014616,97.3999,145.5049,357.1691,2.9460,0,U,67274,999,1090,.42900208E-3,.9526E-4,0
2025-313AD,2025-313AD,2026-03-10T06:33:21.698784,15.21259915,.00138045,97.3978,145.4891,0.8712,359.2546,0,U,67275,999,1090,.41402546E-3,.9209E-4,0
2025-313AE,2025-313AE,2026-03-10T06:32:46.794912,15.21282992,.00138458,97.3973,145.4855,0.7218,359.4035,0,U,67276,999,1090,.44890854E-3,.9998E-4,0
2025-313AF,2025-313AF,2026-03-10T06:33:59.670720,15.21290350,.00137762,97.3980,145.4910,2.2500,357.8795,0,U,67277,999,1090,.39505105E-3,.8791E-4,0
2025-313AG,2025-313AG,2026-03-10T06:31:21.089568,15.21645209,.0015386,97.3988,145.4975,4.0955,356.0404,0,U,67278,999,1091,.41251539E-3,.9285E-4,0
GALAPAGOS-UTE-SWSU,2025-313AH,2026-03-10T06:27:54.334368,15.21383878,.00141102,97.3993,145.5090,357.2379,2.8777,0,U,67279,999,1090,.44707244E-3,.9988E-4,0
2025-313AJ,2025-313AJ,2026-03-10T06:14:55.065984,15.21388908,.00130914,97.4064,145.5751,355.2575,4.8535,0,U,67280,999,1090,.32150561E-3,.7159E-4,0
2025-313AK,2025-313AK,2026-03-10T06:08:37.608576,15.21483668,.00117956,97.3947,145.4817,355.3083,4.8040,0,U,67281,999,1090,.32991489E-3,.7365E-4,0
2025-313AL,2025-313AL,2026-03-10T05:41:00.682944,15.21930549,.00104605,97.3994,145.5400,355.2161,4.8973,0,U,67282,999,1090,.34174456E-3,.773E-4,0
HORS 5,2025-313AM,2026-03-10T05:22:49.517472,15.22470163,.00102299,97.4003,145.5652,354.0312,6.0800,0,U,67283,999,1090,.51100067E-3,.11785E-3,0
LOBACHEVSKY (RS83S),2025-313AN,2026-03-10T05:47:11.948064,15.21799060,.00104932,97.3989,145.5285,355.3503,4.7633,0,U,67284,999,1090,.3327705E-3,.7496E-4,0
NASBSAT-2,2025-313AP,2026-03-10T05:23:00.108384,15.22331451,.00100986,97.3984,145.5437,355.7517,4.3632,0,U,67285,999,1090,.42924561E-3,.9845E-4,0
MULE 4T,2025-313AQ,2026-03-10T05:17:46.511808,15.22537003,.00093861,97.4001,145.5765,351.1225,8.9844,0,U,67286,999,1090,.55864304E-3,.12915E-3,0
LUCA (RS90S),2025-313AR,2026-03-10T03:34:09.031296,15.22721665,.00093723,97.4003,145.5201,353.2434,6.8675,0,U,67287,999,1089,.53438332E-3,.12418E-3,0
2025-313AS,2025-313AS,2026-03-10T05:31:09.649056,15.22052701,.00110368,97.3991,145.5528,344.5925,15.4974,0,U,67288,999,1090,.33650446E-3,.7639E-4,0
NASBSAT-1,2025-313AT,2026-03-10T06:20:01.091328,15.23406752,.00089881,97.4002,145.6716,351.9352,8.1739,0,U,67289,999,1091,.74331361E-3,.17665E-3,0
SAKHACUBE-CHOLBON (RS18S),2025-313AU,2026-03-10T06:34:53.183424,15.22916486,.00090179,97.4002,145.6571,352.3966,7.7132,0,U,67290,999,1091,.58367846E-3,.13649E-3,0
QMR-KWT-2 (RS95S),2025-313AV,2026-03-10T06:17:17.787552,15.23509894,.00086417,97.4001,145.6729,350.7668,9.3409,0,U,67291,999,1091,.79219069E-3,.1889E-3,0
SITRO-AIS-64,2025-313AW,2026-03-10T06:28:12.334080,15.23017871,.00087006,97.4006,145.6671,352.4181,7.6923,0,U,67292,999,1091,.5716333E-3,.13405E-3,0
SCORPION (RS89S),2025-313AX,2026-03-10T05:28:36.208704,15.21964469,.00104818,97.4004,145.5646,343.5049,16.5844,0,U,67293,999,1090,.26578234E-3,.6001E-4,0
SITRO-AIS-63,2025-313AY,2026-03-10T06:25:48.599040,15.23053159,.00086215,97.4008,145.6722,353.1610,6.9508,0,U,67294,999,1091,.57908478E-3,.13595E-3,0
ZORKIY-2M-5,2025-313AZ,2026-03-10T06:35:36.150144,15.22683175,.00099049,97.4004,145.6542,341.2261,18.8609,0,U,67295,999,1091,.44837069E-3,.10394E-3,0
SITRO-AIS-62,2025-313BA,2026-03-10T06:21:04.988448,15.23151070,.00083771,97.4012,145.6803,353.8332,6.2800,0,U,67296,999,1091,.60326908E-3,.14207E-3,0
SITRO-AIS-61,2025-313BB,2026-03-10T06:16:59.359296,15.23213616,.00081817,97.4014,145.6854,356.5865,3.5315,0,U,67297,999,1091,.59187004E-3,.13962E-3,0
2025-313BC,2025-313BC,2026-03-10T04:06:32.387616,15.29297035,.0008606,97.3983,145.7870,324.9582,35.1091,0,U,67298,999,804,.29491802E-2,.84676E-3,0
2025-313BD,2025-313BD,2026-03-10T03:40:08.851872,15.30104286,.00072321,97.3970,145.8058,330.8220,29.2615,0,U,67299,999,1091,.3017767E-2,.88844E-3,0
TIANHUI 7,2025-314A,2026-02-21T16:04:56.557920,15.26178925,.00016912,97.4117,129.4508,83.9579,276.1853,0,U,67300,999,817,.25701477E-3,.6572E-4,0
SHIJIAN-29A (SJ-29A),2025-315A,2026-03-10T02:10:04.945728,1.00273660,.00025133,3.1453,97.6637,311.2554,224.4632,0,U,67302,999,62,0,-.66E-6,0
CSG-3,2026-001A,2026-03-10T07:06:22.696992,14.82149877,.00014233,97.8867,254.3249,87.0794,273.0582,0,U,67304,999,981,.7946164E-4,.58E-5,0
STARLINK-36490,2026-002A,2026-03-10T02:10:47.285184,15.27591565,.00015448,43.0051,322.7123,350.0981,9.9840,0,U,67305,999,1120,.94709309E-3,.259E-3,0
STARLINK-36488,2026-002B,2026-03-10T01:39:31.860000,15.27585294,.00017099,43.0018,323.4126,259.1380,100.9279,0,U,67306,999,1113,.17220084E-2,.47437E-3,0
STARLINK-36481,2026-002C,2026-03-10T01:19:10.727328,15.27590562,.0001035,42.9944,323.2988,27.6093,332.4814,0,U,67307,999,1113,.11834478E-2,.32458E-3,0
STARLINK-36449,2026-002D,2026-03-10T04:16:22.341504,15.27571567,.00017595,43.0011,322.5036,258.1411,101.9243,0,U,67308,999,1121,.15963158E-2,.43916E-3,0
STARLINK-36482,2026-002E,2026-03-10T01:02:31.299648,15.27595328,.00014011,42.9993,323.2149,267.3477,92.7214,0,U,67309,999,1113,.11841672E-2,.32483E-3,0
STARLINK-36491,2026-002F,2026-03-10T01:33:59.012640,15.27579309,.00011236,42.9981,323.3815,265.8355,94.2368,0,U,67310,999,1113,.15390696E-2,.42332E-3,0
STARLINK-36495,2026-002G,2026-03-10T02:21:52.144416,15.27632858,.00020955,43.0046,322.7686,261.7184,98.3431,0,U,67311,999,1130,.13686965E-2,.37656E-3,0
STARLINK-36485,2026-002H,2026-03-10T02:01:31.530144,15.27605530,.00014178,43.0023,322.6610,275.3955,84.6735,0,U,67312,999,1114,.17032627E-2,.46943E-3,0
STARLINK-36445,2026-002J,2026-03-10T01:45:05.007168,15.27596731,.00003868,42.9984,323.4438,281.2460,78.8348,0,U,67313,999,1129,.10638001E-2,.29142E-3,0
STARLINK-36476,2026-002K,2026-03-10T01:13:37.772832,15.27625628,.00015565,43.0001,323.2700,270.4801,89.5873,0,U,67314,999,1112,.11663233E-2,.32017E-3,0
STARLINK-36463,2026-002L,2026-03-10T02:18:10.581984,15.27599968,.0001801,43.0042,322.7474,261.4934,98.5714,0,U,67315,999,1120,.12628144E-2,.34673E-3,0
STARLINK-36461,2026-002M,2026-03-10T00:38:28.392000,15.27600504,.00009732,43.0025,323.0873,331.8784,28.2015,0,U,67316,999,1129,.12000099E-2,.32928E-3,0
STARLINK-36450,2026-002N,2026-03-10T01:46:55.655328,15.27587522,.00013167,43.0022,323.4506,271.8827,88.1874,0,U,67317,999,1129,.93420766E-3,.2554E-3,0
STARLINK-36498,2026-002P,2026-03-10T01:21:01.510272,15.27557938,.00007519,42.9981,323.3062,261.0617,99.0149,0,U,67318,999,1119,.13903416E-2,.38169E-3,0
STARLINK-36470,2026-002Q,2026-03-09T01:54:12.944736,15.27587547,.00018639,43.0005,328.8750,264.6506,95.4133,0,U,67319,999,1104,.13043973E-2,.35815E-3,0
STARLINK-36500,2026-002R,2026-03-10T01:52:28.917408,15.27570949,.00014443,43.0015,323.4806,283.6062,76.4628,0,U,67320,999,1119,.10780535E-2,.29514E-3,0
STARLINK-36462,2026-002S,2026-03-10T01:35:49.881120,15.27643574,.0001502,43.0009,323.3880,275.9622,84.1059,0,U,67321,999,1113,.1483049E-2,.40854E-3,0
STARLINK-36434,2026-002T,2026-03-10T01:41:24.915264,15.27578774,.00012915,42.9980,323.4168,33.6010,326.4923,0,U,67322,999,1113,.11559029E-2,.31681E-3,0
STARLINK-36497,2026-002U,2026-03-10T01:09:54.917856,15.27599528,.00016587,42.9999,323.2472,255.5806,104.4862,0,U,67323,999,1119,.11104314E-2,.30439E-3,0
